{"type":"FeatureCollection","features":[{"type":"Feature","geometry":{"type":"LineString","coordinates":[[37.636381851,55.700155199],[37.635986669,55.699413904]]},"properties":{"cost":9091116.16,"length":86.17,"diameter":150,"flow_tph":47.7,"depth_end":null,"variant_id":"v1","depth_start":null,"end_node_id":"2756","laying_method":"base","start_node_id":"1457","object_type":"heat_network","id":"v_6337"}},{"type":"Feature","geometry":{"type":"LineString","coordinates":[[37.635629112,55.698693697],[37.634327237,55.699635455]]},"properties":{"cost":1.193468904E7,"length":132.98,"diameter":100,"flow_tph":15.99,"depth_end":null,"variant_id":"v1","depth_start":null,"end_node_id":"2798","laying_method":"base","start_node_id":"2774","object_type":"heat_network","id":"v_7298"}},{"type":"Feature","geometry":{"type":"LineString","coordinates":[[37.635333306,55.698475132],[37.634545116,55.69865048]]},"properties":{"cost":4779081.0,"length":53.25,"diameter":100,"flow_tph":18.03,"depth_end":null,"variant_id":"v1","depth_start":null,"end_node_id":"2800","laying_method":"base","start_node_id":"2772","object_type":"heat_network","id":"v_7171"}},{"type":"Feature","geometry":{"type":"LineString","coordinates":[[37.633466552,55.697592124],[37.633656811,55.697686393]]},"properties":{"cost":1427890.68,"length":15.91,"diameter":100,"flow_tph":19.73,"depth_end":null,"variant_id":"v1","depth_start":null,"end_node_id":"2870","laying_method":"base","start_node_id":"2857","object_type":"heat_network","id":"v_10051"}},{"type":"Feature","geometry":{"type":"LineString","coordinates":[[37.634405404,55.699481064],[37.634963485,55.699015136]]},"properties":{"cost":6090290.48,"length":62.61,"diameter":125,"flow_tph":24.87,"depth_end":null,"variant_id":"v1","depth_start":null,"end_node_id":"2801","laying_method":"base","start_node_id":"1454","object_type":"heat_network","id":"v_6214"}},{"type":"Feature","geometry":{"type":"LineString","coordinates":[[37.633901056,55.697722607],[37.634205497,55.697892803]]},"properties":{"cost":2416644.4,"length":26.93,"diameter":100,"flow_tph":19.77,"depth_end":null,"variant_id":"v1","depth_start":null,"end_node_id":"2873","laying_method":"base","start_node_id":"1465","object_type":"heat_network","id":"v_6278"}},{"type":"Feature","geometry":{"type":"LineString","coordinates":[[37.635986669,55.699413904],[37.635784206,55.698923763]]},"properties":{"cost":5910291.13,"length":56.02,"diameter":150,"flow_tph":47.7,"depth_end":null,"variant_id":"v1","depth_start":null,"end_node_id":"2775","laying_method":"base","start_node_id":"2756","object_type":"heat_network","id":"v_6473"}},{"type":"Feature","geometry":{"type":"LineString","coordinates":[[37.633752441,55.697472329],[37.633466552,55.697592124]]},"properties":{"cost":2008291.0,"length":22.38,"diameter":100,"flow_tph":19.73,"depth_end":null,"variant_id":"v1","depth_start":null,"end_node_id":"2857","laying_method":"base","start_node_id":"1466","object_type":"heat_network","id":"v_6286"}},{"type":"Feature","geometry":{"type":"LineString","coordinates":[[37.635417056,55.698614732],[37.635238998,55.698855509]]},"properties":{"cost":3064134.29,"length":29.04,"diameter":150,"flow_tph":58.37,"depth_end":null,"variant_id":"v1","depth_start":null,"end_node_id":"2771","laying_method":"base","start_node_id":"1458","object_type":"heat_network","id":"v_6352"}},{"type":"Feature","geometry":{"type":"LineString","coordinates":[[37.635417056,55.698614732],[37.635333306,55.698475132]]},"properties":{"cost":2219973.82,"length":16.41,"diameter":250,"flow_tph":197.09,"depth_end":null,"variant_id":"v1","depth_start":null,"end_node_id":"2772","laying_method":"base","start_node_id":"1458","object_type":"heat_network","id":"v_6353"}},{"type":"Feature","geometry":{"type":"LineString","coordinates":[[37.635417056,55.698614732],[37.638461839,55.697638533]]},"properties":{"cost":3.30171418E7,"length":220.08,"diameter":300,"flow_tph":364.0,"depth_end":null,"variant_id":"v1","depth_start":null,"end_node_id":"1471","laying_method":"base","start_node_id":"1458","object_type":"heat_network","id":"v_5970"}},{"type":"Feature","geometry":{"type":"LineString","coordinates":[[37.63609324,55.697296569],[37.635980075,55.697449098]]},"properties":{"cost":1790540.93,"length":18.41,"diameter":125,"flow_tph":33.14,"depth_end":null,"variant_id":"v1","depth_start":null,"end_node_id":"2845","laying_method":"base","start_node_id":"1462","object_type":"heat_network","id":"v_6226"}},{"type":"Feature","geometry":{"type":"LineString","coordinates":[[37.635417056,55.698614732],[37.635553096,55.69932127]]},"properties":{"cost":7099336.04,"length":79.1,"diameter":100,"flow_tph":18.76,"depth_end":null,"variant_id":"v1","depth_start":null,"end_node_id":"2773","laying_method":"base","start_node_id":"1458","object_type":"heat_network","id":"v_6354"}},{"type":"Feature","geometry":{"type":"LineString","coordinates":[[37.635417056,55.698614732],[37.635629112,55.698693697]]},"properties":{"cost":1432916.57,"length":15.97,"diameter":100,"flow_tph":15.99,"depth_end":null,"variant_id":"v1","depth_start":null,"end_node_id":"2774","laying_method":"base","start_node_id":"1458","object_type":"heat_network","id":"v_6355"}},{"type":"Feature","geometry":{"type":"LineString","coordinates":[[37.635333306,55.698475132],[37.635082576,55.698312476]]},"properties":{"cost":2886960.83,"length":24.0,"diameter":200,"flow_tph":74.03,"depth_end":null,"variant_id":"v1","depth_start":null,"end_node_id":"2838","laying_method":"base","start_node_id":"2772","object_type":"heat_network","id":"v_7187"}},{"type":"Feature","geometry":{"type":"LineString","coordinates":[[37.635417056,55.698614732],[37.635784206,55.698923763]]},"properties":{"cost":4370205.45,"length":41.42,"diameter":150,"flow_tph":47.7,"depth_end":null,"variant_id":"v1","depth_start":null,"end_node_id":"2775","laying_method":"base","start_node_id":"1458","object_type":"heat_network","id":"v_6356"}},{"type":"Feature","geometry":{"type":"LineString","coordinates":[[37.635553096,55.69932127],[37.635398447,55.699664567]]},"properties":{"cost":3538494.4,"length":39.43,"diameter":100,"flow_tph":18.76,"depth_end":null,"variant_id":"v1","depth_start":null,"end_node_id":"2808","laying_method":"base","start_node_id":"2773","object_type":"heat_network","id":"v_7253"}},{"type":"Feature","geometry":{"type":"LineString","coordinates":[[37.640764466,55.698407392],[37.639572728,55.698671674]]},"properties":{"cost":9679611.73,"length":80.48,"diameter":200,"flow_tph":76.27,"depth_end":null,"variant_id":"v1","depth_start":null,"end_node_id":"1511","laying_method":"base","start_node_id":"1510","object_type":"heat_network","id":"v_5526"}},{"type":"Feature","geometry":{"type":"LineString","coordinates":[[37.632765879,55.697563709],[37.632446869,55.697439356]]},"properties":{"cost":2370202.65,"length":24.37,"diameter":125,"flow_tph":31.89,"depth_end":null,"variant_id":"v1","depth_start":null,"end_node_id":"2903","laying_method":"base","start_node_id":"2853","object_type":"heat_network","id":"v_9943"}},{"type":"Feature","geometry":{"type":"LineString","coordinates":[[37.635333306,55.698475132],[37.635980075,55.697449098]]},"properties":{"cost":1.17916755E7,"length":121.22,"diameter":125,"flow_tph":33.14,"depth_end":null,"variant_id":"v1","depth_start":null,"end_node_id":"2845","laying_method":"base","start_node_id":"2772","object_type":"heat_network","id":"v_7194"}},{"type":"Feature","geometry":{"type":"LineString","coordinates":[[37.633204499,55.699575075],[37.633461561,55.699510742]]},"properties":{"cost":1389645.66,"length":17.67,"diameter":65,"flow_tph":4.08,"depth_end":null,"variant_id":"v1","depth_start":null,"end_node_id":"2866","laying_method":"base","start_node_id":"1463","object_type":"heat_network","id":"v_6239"}},{"type":"Feature","geometry":{"type":"LineString","coordinates":[[37.634289664,55.697393635],[37.635082576,55.698312476]]},"properties":{"cost":1.10667822E7,"length":113.77,"diameter":125,"flow_tph":34.53,"depth_end":null,"variant_id":"v1","depth_start":null,"end_node_id":"2838","laying_method":"base","start_node_id":"2828","object_type":"heat_network","id":"v_9186"}},{"type":"Feature","geometry":{"type":"LineString","coordinates":[[37.634963485,55.699015136],[37.633461561,55.699510742]]},"properties":{"cost":8597592.17,"length":109.34,"diameter":65,"flow_tph":4.08,"depth_end":null,"variant_id":"v1","depth_start":null,"end_node_id":"2866","laying_method":"base","start_node_id":"2801","object_type":"heat_network","id":"v_8549"}},{"type":"Feature","geometry":{"type":"LineString","coordinates":[[37.632012226,55.700048261],[37.632162838,55.700072039]]},"properties":{"cost":882222.84,"length":9.83,"diameter":100,"flow_tph":15.99,"depth_end":null,"variant_id":"v1","depth_start":null,"end_node_id":"2826","laying_method":"base","start_node_id":"1459","object_type":"heat_network","id":"v_6375"}},{"type":"Feature","geometry":{"type":"LineString","coordinates":[[37.638280304,55.697956786],[37.638461839,55.697638533]]},"properties":{"cost":3620089.13,"length":37.22,"diameter":125,"flow_tph":27.82,"depth_end":null,"variant_id":"v1","depth_start":null,"end_node_id":"1493","laying_method":"base","start_node_id":"1488","object_type":"heat_network","id":"v_5672"}},{"type":"Feature","geometry":{"type":"LineString","coordinates":[[37.635082576,55.698312476],[37.633656811,55.697686393]]},"properties":{"cost":1.01886417E7,"length":113.53,"diameter":100,"flow_tph":19.73,"depth_end":null,"variant_id":"v1","depth_start":null,"end_node_id":"2870","laying_method":"base","start_node_id":"2838","object_type":"heat_network","id":"v_9577"}},{"type":"Feature","geometry":{"type":"LineString","coordinates":[[37.632034439,55.69704569],[37.632446869,55.697439356]]},"properties":{"cost":4952367.53,"length":50.91,"diameter":125,"flow_tph":31.89,"depth_end":null,"variant_id":"v1","depth_start":null,"end_node_id":"2903","laying_method":"base","start_node_id":"1467","object_type":"heat_network","id":"v_6316"}},{"type":"Feature","geometry":{"type":"LineString","coordinates":[[37.632745397,55.70010957],[37.634268624,55.699336188]]},"properties":{"cost":1.252415625E7,"length":128.75,"diameter":125,"flow_tph":29.42,"depth_end":null,"variant_id":"v1","depth_start":null,"end_node_id":"2797","laying_method":"base","start_node_id":"2787","object_type":"heat_network","id":"v_7852"}},{"type":"Feature","geometry":{"type":"LineString","coordinates":[[37.634545116,55.69865048],[37.63282015,55.699699]]},"properties":{"cost":1.429658716E7,"length":159.3,"diameter":100,"flow_tph":18.03,"depth_end":null,"variant_id":"v1","depth_start":null,"end_node_id":"2861","laying_method":"base","start_node_id":"2800","object_type":"heat_network","id":"v_8492"}},{"type":"Feature","geometry":{"type":"LineString","coordinates":[[37.635082576,55.698312476],[37.634205497,55.697892803]]},"properties":{"cost":6485100.73,"length":72.26,"diameter":100,"flow_tph":19.77,"depth_end":null,"variant_id":"v1","depth_start":null,"end_node_id":"2873","laying_method":"base","start_node_id":"2838","object_type":"heat_network","id":"v_9580"}},{"type":"Feature","geometry":{"type":"LineString","coordinates":[[37.639538146,55.696851829],[37.638240271,55.69734639]]},"properties":{"cost":8832818.66,"length":98.42,"diameter":100,"flow_tph":20.63,"depth_end":null,"variant_id":"v1","depth_start":null,"end_node_id":"1496","laying_method":"base","start_node_id":"1489","object_type":"heat_network","id":"v_5548"}},{"type":"Feature","geometry":{"type":"LineString","coordinates":[[37.635333306,55.698475132],[37.633839721,55.698587125]]},"properties":{"cost":9212720.7,"length":94.71,"diameter":125,"flow_tph":40.0,"depth_end":null,"variant_id":"v1","depth_start":null,"end_node_id":"2871","laying_method":"base","start_node_id":"2772","object_type":"heat_network","id":"v_7213"}},{"type":"Feature","geometry":{"type":"LineString","coordinates":[[37.632202634,55.700314417],[37.632321558,55.700263158]]},"properties":{"cost":843900.44,"length":9.4,"diameter":100,"flow_tph":18.03,"depth_end":null,"variant_id":"v1","depth_start":null,"end_node_id":"2817","laying_method":"base","start_node_id":"1460","object_type":"heat_network","id":"v_6382"}},{"type":"Feature","geometry":{"type":"LineString","coordinates":[[37.635333306,55.698475132],[37.633870304,55.698110419]]},"properties":{"cost":9778374.82,"length":100.52,"diameter":125,"flow_tph":31.89,"depth_end":null,"variant_id":"v1","depth_start":null,"end_node_id":"2872","laying_method":"base","start_node_id":"2772","object_type":"heat_network","id":"v_7214"}},{"type":"Feature","geometry":{"type":"LineString","coordinates":[[37.634446268,55.697252392],[37.634289664,55.697393635]]},"properties":{"cost":1804353.98,"length":18.55,"diameter":125,"flow_tph":34.53,"depth_end":null,"variant_id":"v1","depth_start":null,"end_node_id":"2828","laying_method":"base","start_node_id":"1461","object_type":"heat_network","id":"v_6385"}},{"type":"Feature","geometry":{"type":"LineString","coordinates":[[37.634582926,55.699854464],[37.635398447,55.699664567]]},"properties":{"cost":4976257.36,"length":55.45,"diameter":100,"flow_tph":18.76,"depth_end":null,"variant_id":"v1","depth_start":null,"end_node_id":"2808","laying_method":"base","start_node_id":"1455","object_type":"heat_network","id":"v_6325"}},{"type":"Feature","geometry":{"type":"LineString","coordinates":[[37.632846602,55.70027576],[37.632745397,55.70010957]]},"properties":{"cost":1902796.28,"length":19.56,"diameter":125,"flow_tph":29.42,"depth_end":null,"variant_id":"v1","depth_start":null,"end_node_id":"2787","laying_method":"base","start_node_id":"1456","object_type":"heat_network","id":"v_6328"}},{"type":"Feature","geometry":{"type":"LineString","coordinates":[[37.635238998,55.698855509],[37.634268624,55.699336188]]},"properties":{"cost":7892309.85,"length":81.13,"diameter":125,"flow_tph":29.42,"depth_end":null,"variant_id":"v1","depth_start":null,"end_node_id":"2797","laying_method":"base","start_node_id":"2771","object_type":"heat_network","id":"v_7096"}},{"type":"Feature","geometry":{"type":"LineString","coordinates":[[37.632321558,55.700263158],[37.63282015,55.699699]]},"properties":{"cost":6298335.14,"length":70.18,"diameter":100,"flow_tph":18.03,"depth_end":null,"variant_id":"v1","depth_start":null,"end_node_id":"2861","laying_method":"base","start_node_id":"2817","object_type":"heat_network","id":"v_8890"}},{"type":"Feature","geometry":{"type":"LineString","coordinates":[[37.634327237,55.699635455],[37.632162838,55.700072039]]},"properties":{"cost":1.296526532E7,"length":144.46,"diameter":100,"flow_tph":15.99,"depth_end":null,"variant_id":"v1","depth_start":null,"end_node_id":"2826","laying_method":"base","start_node_id":"2798","object_type":"heat_network","id":"v_8379"}},{"type":"Feature","geometry":{"type":"LineString","coordinates":[[37.632765879,55.697563709],[37.633870304,55.698110419]]},"properties":{"cost":8980038.9,"length":92.32,"diameter":125,"flow_tph":31.89,"depth_end":null,"variant_id":"v1","depth_start":null,"end_node_id":"2872","laying_method":"base","start_node_id":"2853","object_type":"heat_network","id":"v_9915"}},{"type":"Feature","geometry":{"type":"LineString","coordinates":[[37.635238998,55.698855509],[37.634963485,55.699015136]]},"properties":{"cost":2413490.03,"length":24.81,"diameter":125,"flow_tph":28.95,"depth_end":null,"variant_id":"v1","depth_start":null,"end_node_id":"2801","laying_method":"base","start_node_id":"2771","object_type":"heat_network","id":"v_7100"}},{"type":"Feature","geometry":{"type":"LineString","coordinates":[[37.633839721,55.698587125],[37.633243533,55.6986993]]},"properties":{"cost":3842362.5,"length":39.5,"diameter":125,"flow_tph":40.0,"depth_end":null,"variant_id":"v1","depth_start":null,"end_node_id":"2906","laying_method":"base","start_node_id":"2871","object_type":"heat_network","id":"v_10493"}},{"type":"Feature","geometry":{"type":"LineString","coordinates":[[37.633139322,55.698653068],[37.633243533,55.6986993]]},"properties":{"cost":810300.75,"length":8.33,"diameter":125,"flow_tph":40.0,"depth_end":null,"variant_id":"v1","depth_start":null,"end_node_id":"2906","laying_method":"base","start_node_id":"1464","object_type":"heat_network","id":"v_6271"}},{"type":"Feature","geometry":{"type":"Point","coordinates":[37.639572728,55.698671674]},"properties":{"cost":3000000.0,"diameter":200,"variant_id":"v1","object_type":"heat_chamber","id":"ch_1511"}},{"type":"Feature","geometry":{"type":"Point","coordinates":[37.638240271,55.69734639]},"properties":{"cost":3000000.0,"diameter":100,"variant_id":"v1","object_type":"heat_chamber","id":"ch_1496"}},{"type":"Feature","geometry":null,"properties":{"rank":1,"score":16.8375,"variant_id":"v1","calculated_cost":2.9747599796E8,"construction_cost":2.9747599796E8,"new_network_length":2836.07,"unconnected_oks_ids":[],"unconnected_penalty":0.0,"chamber_construction_cost":6000000.0,"existing_chamber_tie_in_cost":10000000,"existing_chamber_tie_in_count":2,"object_type":"variant_summary","id":"summary_v1"}},{"type":"Feature","geometry":{"type":"LineString","coordinates":[[37.636381851,55.700155199],[37.635986669,55.699413904]]},"properties":{"cost":9091116.16,"length":86.17,"diameter":150,"flow_tph":47.7,"depth_end":null,"variant_id":"v2","depth_start":null,"end_node_id":"2756","laying_method":"base","start_node_id":"1457","object_type":"heat_network","id":"v_6337"}},{"type":"Feature","geometry":{"type":"LineString","coordinates":[[37.635629112,55.698693697],[37.634327237,55.699635455]]},"properties":{"cost":1.193468904E7,"length":132.98,"diameter":100,"flow_tph":15.99,"depth_end":null,"variant_id":"v2","depth_start":null,"end_node_id":"2798","laying_method":"base","start_node_id":"2774","object_type":"heat_network","id":"v_7298"}},{"type":"Feature","geometry":{"type":"LineString","coordinates":[[37.635333306,55.698475132],[37.634545116,55.69865048]]},"properties":{"cost":4779081.0,"length":53.25,"diameter":100,"flow_tph":18.03,"depth_end":null,"variant_id":"v2","depth_start":null,"end_node_id":"2800","laying_method":"base","start_node_id":"2772","object_type":"heat_network","id":"v_7171"}},{"type":"Feature","geometry":{"type":"LineString","coordinates":[[37.633466552,55.697592124],[37.633656811,55.697686393]]},"properties":{"cost":1427890.68,"length":15.91,"diameter":100,"flow_tph":19.73,"depth_end":null,"variant_id":"v2","depth_start":null,"end_node_id":"2870","laying_method":"base","start_node_id":"2857","object_type":"heat_network","id":"v_10051"}},{"type":"Feature","geometry":{"type":"LineString","coordinates":[[37.634405404,55.699481064],[37.634963485,55.699015136]]},"properties":{"cost":6090290.48,"length":62.61,"diameter":125,"flow_tph":24.87,"depth_end":null,"variant_id":"v2","depth_start":null,"end_node_id":"2801","laying_method":"base","start_node_id":"1454","object_type":"heat_network","id":"v_6214"}},{"type":"Feature","geometry":{"type":"LineString","coordinates":[[37.633901056,55.697722607],[37.634205497,55.697892803]]},"properties":{"cost":2416644.4,"length":26.93,"diameter":100,"flow_tph":19.77,"depth_end":null,"variant_id":"v2","depth_start":null,"end_node_id":"2873","laying_method":"base","start_node_id":"1465","object_type":"heat_network","id":"v_6278"}},{"type":"Feature","geometry":{"type":"LineString","coordinates":[[37.635986669,55.699413904],[37.635784206,55.698923763]]},"properties":{"cost":5910291.13,"length":56.02,"diameter":150,"flow_tph":47.7,"depth_end":null,"variant_id":"v2","depth_start":null,"end_node_id":"2775","laying_method":"base","start_node_id":"2756","object_type":"heat_network","id":"v_6473"}},{"type":"Feature","geometry":{"type":"LineString","coordinates":[[37.633752441,55.697472329],[37.633466552,55.697592124]]},"properties":{"cost":2008291.0,"length":22.38,"diameter":100,"flow_tph":19.73,"depth_end":null,"variant_id":"v2","depth_start":null,"end_node_id":"2857","laying_method":"base","start_node_id":"1466","object_type":"heat_network","id":"v_6286"}},{"type":"Feature","geometry":{"type":"LineString","coordinates":[[37.640764466,55.698407392],[37.639557137,55.69865159]]},"properties":{"cost":9695488.03,"length":80.61,"diameter":200,"flow_tph":76.27,"depth_end":null,"variant_id":"v2","depth_start":null,"end_node_id":"1514","laying_method":"base","start_node_id":"1510","object_type":"heat_network","id":"v_5518"}},{"type":"Feature","geometry":{"type":"LineString","coordinates":[[37.635417056,55.698614732],[37.635238998,55.698855509]]},"properties":{"cost":3064134.29,"length":29.04,"diameter":150,"flow_tph":58.37,"depth_end":null,"variant_id":"v2","depth_start":null,"end_node_id":"2771","laying_method":"base","start_node_id":"1458","object_type":"heat_network","id":"v_6352"}},{"type":"Feature","geometry":{"type":"LineString","coordinates":[[37.635417056,55.698614732],[37.635333306,55.698475132]]},"properties":{"cost":2219973.82,"length":16.41,"diameter":250,"flow_tph":197.09,"depth_end":null,"variant_id":"v2","depth_start":null,"end_node_id":"2772","laying_method":"base","start_node_id":"1458","object_type":"heat_network","id":"v_6353"}},{"type":"Feature","geometry":{"type":"LineString","coordinates":[[37.63609324,55.697296569],[37.635980075,55.697449098]]},"properties":{"cost":1790540.93,"length":18.41,"diameter":125,"flow_tph":33.14,"depth_end":null,"variant_id":"v2","depth_start":null,"end_node_id":"2845","laying_method":"base","start_node_id":"1462","object_type":"heat_network","id":"v_6226"}},{"type":"Feature","geometry":{"type":"LineString","coordinates":[[37.635417056,55.698614732],[37.635553096,55.69932127]]},"properties":{"cost":7099336.04,"length":79.1,"diameter":100,"flow_tph":18.76,"depth_end":null,"variant_id":"v2","depth_start":null,"end_node_id":"2773","laying_method":"base","start_node_id":"1458","object_type":"heat_network","id":"v_6354"}},{"type":"Feature","geometry":{"type":"LineString","coordinates":[[37.635417056,55.698614732],[37.638461839,55.697638533]]},"properties":{"cost":3.30171418E7,"length":220.08,"diameter":300,"flow_tph":364.0,"depth_end":null,"variant_id":"v2","depth_start":null,"end_node_id":"1469","laying_method":"base","start_node_id":"1458","object_type":"heat_network","id":"v_5971"}},{"type":"Feature","geometry":{"type":"LineString","coordinates":[[37.635417056,55.698614732],[37.635629112,55.698693697]]},"properties":{"cost":1432916.57,"length":15.97,"diameter":100,"flow_tph":15.99,"depth_end":null,"variant_id":"v2","depth_start":null,"end_node_id":"2774","laying_method":"base","start_node_id":"1458","object_type":"heat_network","id":"v_6355"}},{"type":"Feature","geometry":{"type":"LineString","coordinates":[[37.635333306,55.698475132],[37.635082576,55.698312476]]},"properties":{"cost":2886960.83,"length":24.0,"diameter":200,"flow_tph":74.03,"depth_end":null,"variant_id":"v2","depth_start":null,"end_node_id":"2838","laying_method":"base","start_node_id":"2772","object_type":"heat_network","id":"v_7187"}},{"type":"Feature","geometry":{"type":"LineString","coordinates":[[37.635417056,55.698614732],[37.635784206,55.698923763]]},"properties":{"cost":4370205.45,"length":41.42,"diameter":150,"flow_tph":47.7,"depth_end":null,"variant_id":"v2","depth_start":null,"end_node_id":"2775","laying_method":"base","start_node_id":"1458","object_type":"heat_network","id":"v_6356"}},{"type":"Feature","geometry":{"type":"LineString","coordinates":[[37.635553096,55.69932127],[37.635398447,55.699664567]]},"properties":{"cost":3538494.4,"length":39.43,"diameter":100,"flow_tph":18.76,"depth_end":null,"variant_id":"v2","depth_start":null,"end_node_id":"2808","laying_method":"base","start_node_id":"2773","object_type":"heat_network","id":"v_7253"}},{"type":"Feature","geometry":{"type":"LineString","coordinates":[[37.632765879,55.697563709],[37.632446869,55.697439356]]},"properties":{"cost":2370202.65,"length":24.37,"diameter":125,"flow_tph":31.89,"depth_end":null,"variant_id":"v2","depth_start":null,"end_node_id":"2903","laying_method":"base","start_node_id":"2853","object_type":"heat_network","id":"v_9943"}},{"type":"Feature","geometry":{"type":"LineString","coordinates":[[37.635333306,55.698475132],[37.635980075,55.697449098]]},"properties":{"cost":1.17916755E7,"length":121.22,"diameter":125,"flow_tph":33.14,"depth_end":null,"variant_id":"v2","depth_start":null,"end_node_id":"2845","laying_method":"base","start_node_id":"2772","object_type":"heat_network","id":"v_7194"}},{"type":"Feature","geometry":{"type":"LineString","coordinates":[[37.633204499,55.699575075],[37.633461561,55.699510742]]},"properties":{"cost":1389645.66,"length":17.67,"diameter":65,"flow_tph":4.08,"depth_end":null,"variant_id":"v2","depth_start":null,"end_node_id":"2866","laying_method":"base","start_node_id":"1463","object_type":"heat_network","id":"v_6239"}},{"type":"Feature","geometry":{"type":"LineString","coordinates":[[37.634289664,55.697393635],[37.635082576,55.698312476]]},"properties":{"cost":1.10667822E7,"length":113.77,"diameter":125,"flow_tph":34.53,"depth_end":null,"variant_id":"v2","depth_start":null,"end_node_id":"2838","laying_method":"base","start_node_id":"2828","object_type":"heat_network","id":"v_9186"}},{"type":"Feature","geometry":{"type":"LineString","coordinates":[[37.634963485,55.699015136],[37.633461561,55.699510742]]},"properties":{"cost":8597592.17,"length":109.34,"diameter":65,"flow_tph":4.08,"depth_end":null,"variant_id":"v2","depth_start":null,"end_node_id":"2866","laying_method":"base","start_node_id":"2801","object_type":"heat_network","id":"v_8549"}},{"type":"Feature","geometry":{"type":"LineString","coordinates":[[37.639538146,55.696851829],[37.638240271,55.69734639]]},"properties":{"cost":8832818.66,"length":98.42,"diameter":100,"flow_tph":20.63,"depth_end":null,"variant_id":"v2","depth_start":null,"end_node_id":"1497","laying_method":"base","start_node_id":"1489","object_type":"heat_network","id":"v_5670"}},{"type":"Feature","geometry":{"type":"LineString","coordinates":[[37.632012226,55.700048261],[37.632162838,55.700072039]]},"properties":{"cost":882222.84,"length":9.83,"diameter":100,"flow_tph":15.99,"depth_end":null,"variant_id":"v2","depth_start":null,"end_node_id":"2826","laying_method":"base","start_node_id":"1459","object_type":"heat_network","id":"v_6375"}},{"type":"Feature","geometry":{"type":"LineString","coordinates":[[37.635082576,55.698312476],[37.633656811,55.697686393]]},"properties":{"cost":1.01886417E7,"length":113.53,"diameter":100,"flow_tph":19.73,"depth_end":null,"variant_id":"v2","depth_start":null,"end_node_id":"2870","laying_method":"base","start_node_id":"2838","object_type":"heat_network","id":"v_9577"}},{"type":"Feature","geometry":{"type":"LineString","coordinates":[[37.632034439,55.69704569],[37.632446869,55.697439356]]},"properties":{"cost":4952367.53,"length":50.91,"diameter":125,"flow_tph":31.89,"depth_end":null,"variant_id":"v2","depth_start":null,"end_node_id":"2903","laying_method":"base","start_node_id":"1467","object_type":"heat_network","id":"v_6316"}},{"type":"Feature","geometry":{"type":"LineString","coordinates":[[37.632745397,55.70010957],[37.634268624,55.699336188]]},"properties":{"cost":1.252415625E7,"length":128.75,"diameter":125,"flow_tph":29.42,"depth_end":null,"variant_id":"v2","depth_start":null,"end_node_id":"2797","laying_method":"base","start_node_id":"2787","object_type":"heat_network","id":"v_7852"}},{"type":"Feature","geometry":{"type":"LineString","coordinates":[[37.634545116,55.69865048],[37.63282015,55.699699]]},"properties":{"cost":1.429658716E7,"length":159.3,"diameter":100,"flow_tph":18.03,"depth_end":null,"variant_id":"v2","depth_start":null,"end_node_id":"2861","laying_method":"base","start_node_id":"2800","object_type":"heat_network","id":"v_8492"}},{"type":"Feature","geometry":{"type":"LineString","coordinates":[[37.635082576,55.698312476],[37.634205497,55.697892803]]},"properties":{"cost":6485100.73,"length":72.26,"diameter":100,"flow_tph":19.77,"depth_end":null,"variant_id":"v2","depth_start":null,"end_node_id":"2873","laying_method":"base","start_node_id":"2838","object_type":"heat_network","id":"v_9580"}},{"type":"Feature","geometry":{"type":"LineString","coordinates":[[37.635333306,55.698475132],[37.633839721,55.698587125]]},"properties":{"cost":9212720.7,"length":94.71,"diameter":125,"flow_tph":40.0,"depth_end":null,"variant_id":"v2","depth_start":null,"end_node_id":"2871","laying_method":"base","start_node_id":"2772","object_type":"heat_network","id":"v_7213"}},{"type":"Feature","geometry":{"type":"LineString","coordinates":[[37.632202634,55.700314417],[37.632321558,55.700263158]]},"properties":{"cost":843900.44,"length":9.4,"diameter":100,"flow_tph":18.03,"depth_end":null,"variant_id":"v2","depth_start":null,"end_node_id":"2817","laying_method":"base","start_node_id":"1460","object_type":"heat_network","id":"v_6382"}},{"type":"Feature","geometry":{"type":"LineString","coordinates":[[37.635333306,55.698475132],[37.633870304,55.698110419]]},"properties":{"cost":9778374.82,"length":100.52,"diameter":125,"flow_tph":31.89,"depth_end":null,"variant_id":"v2","depth_start":null,"end_node_id":"2872","laying_method":"base","start_node_id":"2772","object_type":"heat_network","id":"v_7214"}},{"type":"Feature","geometry":{"type":"LineString","coordinates":[[37.638280304,55.697956786],[37.638461839,55.697638533]]},"properties":{"cost":3620089.13,"length":37.22,"diameter":125,"flow_tph":27.82,"depth_end":null,"variant_id":"v2","depth_start":null,"end_node_id":"1495","laying_method":"base","start_node_id":"1488","object_type":"heat_network","id":"v_5678"}},{"type":"Feature","geometry":{"type":"LineString","coordinates":[[37.634446268,55.697252392],[37.634289664,55.697393635]]},"properties":{"cost":1804353.98,"length":18.55,"diameter":125,"flow_tph":34.53,"depth_end":null,"variant_id":"v2","depth_start":null,"end_node_id":"2828","laying_method":"base","start_node_id":"1461","object_type":"heat_network","id":"v_6385"}},{"type":"Feature","geometry":{"type":"LineString","coordinates":[[37.634582926,55.699854464],[37.635398447,55.699664567]]},"properties":{"cost":4976257.36,"length":55.45,"diameter":100,"flow_tph":18.76,"depth_end":null,"variant_id":"v2","depth_start":null,"end_node_id":"2808","laying_method":"base","start_node_id":"1455","object_type":"heat_network","id":"v_6325"}},{"type":"Feature","geometry":{"type":"LineString","coordinates":[[37.632846602,55.70027576],[37.632745397,55.70010957]]},"properties":{"cost":1902796.28,"length":19.56,"diameter":125,"flow_tph":29.42,"depth_end":null,"variant_id":"v2","depth_start":null,"end_node_id":"2787","laying_method":"base","start_node_id":"1456","object_type":"heat_network","id":"v_6328"}},{"type":"Feature","geometry":{"type":"LineString","coordinates":[[37.635238998,55.698855509],[37.634268624,55.699336188]]},"properties":{"cost":7892309.85,"length":81.13,"diameter":125,"flow_tph":29.42,"depth_end":null,"variant_id":"v2","depth_start":null,"end_node_id":"2797","laying_method":"base","start_node_id":"2771","object_type":"heat_network","id":"v_7096"}},{"type":"Feature","geometry":{"type":"LineString","coordinates":[[37.632321558,55.700263158],[37.63282015,55.699699]]},"properties":{"cost":6298335.14,"length":70.18,"diameter":100,"flow_tph":18.03,"depth_end":null,"variant_id":"v2","depth_start":null,"end_node_id":"2861","laying_method":"base","start_node_id":"2817","object_type":"heat_network","id":"v_8890"}},{"type":"Feature","geometry":{"type":"LineString","coordinates":[[37.634327237,55.699635455],[37.632162838,55.700072039]]},"properties":{"cost":1.296526532E7,"length":144.46,"diameter":100,"flow_tph":15.99,"depth_end":null,"variant_id":"v2","depth_start":null,"end_node_id":"2826","laying_method":"base","start_node_id":"2798","object_type":"heat_network","id":"v_8379"}},{"type":"Feature","geometry":{"type":"LineString","coordinates":[[37.632765879,55.697563709],[37.633870304,55.698110419]]},"properties":{"cost":8980038.9,"length":92.32,"diameter":125,"flow_tph":31.89,"depth_end":null,"variant_id":"v2","depth_start":null,"end_node_id":"2872","laying_method":"base","start_node_id":"2853","object_type":"heat_network","id":"v_9915"}},{"type":"Feature","geometry":{"type":"LineString","coordinates":[[37.635238998,55.698855509],[37.634963485,55.699015136]]},"properties":{"cost":2413490.03,"length":24.81,"diameter":125,"flow_tph":28.95,"depth_end":null,"variant_id":"v2","depth_start":null,"end_node_id":"2801","laying_method":"base","start_node_id":"2771","object_type":"heat_network","id":"v_7100"}},{"type":"Feature","geometry":{"type":"LineString","coordinates":[[37.633839721,55.698587125],[37.633243533,55.6986993]]},"properties":{"cost":3842362.5,"length":39.5,"diameter":125,"flow_tph":40.0,"depth_end":null,"variant_id":"v2","depth_start":null,"end_node_id":"2906","laying_method":"base","start_node_id":"2871","object_type":"heat_network","id":"v_10493"}},{"type":"Feature","geometry":{"type":"LineString","coordinates":[[37.633139322,55.698653068],[37.633243533,55.6986993]]},"properties":{"cost":810300.75,"length":8.33,"diameter":125,"flow_tph":40.0,"depth_end":null,"variant_id":"v2","depth_start":null,"end_node_id":"2906","laying_method":"base","start_node_id":"1464","object_type":"heat_network","id":"v_6271"}},{"type":"Feature","geometry":{"type":"Point","coordinates":[37.638461839,55.697638533]},"properties":{"cost":3000000.0,"diameter":125,"variant_id":"v2","object_type":"heat_chamber","id":"ch_1495"}},{"type":"Feature","geometry":{"type":"Point","coordinates":[37.638240271,55.69734639]},"properties":{"cost":3000000.0,"diameter":100,"variant_id":"v2","object_type":"heat_chamber","id":"ch_1497"}},{"type":"Feature","geometry":{"type":"Point","coordinates":[37.638461839,55.697638533]},"properties":{"cost":5000000.0,"diameter":300,"variant_id":"v2","object_type":"heat_chamber","id":"ch_1469"}},{"type":"Feature","geometry":null,"properties":{"rank":1,"score":16.8384,"variant_id":"v2","calculated_cost":2.9749187426E8,"construction_cost":2.9749187426E8,"new_network_length":2836.2,"unconnected_oks_ids":[],"unconnected_penalty":0.0,"chamber_construction_cost":11000000,"existing_chamber_tie_in_cost":5000000.0,"existing_chamber_tie_in_count":1,"object_type":"variant_summary","id":"summary_v2"}},{"type":"Feature","geometry":{"type":"LineString","coordinates":[[37.636381851,55.700155199],[37.635986669,55.699413904]]},"properties":{"cost":9091116.16,"length":86.17,"diameter":150,"flow_tph":47.7,"depth_end":null,"variant_id":"v3","depth_start":null,"end_node_id":"2756","laying_method":"base","start_node_id":"1457","object_type":"heat_network","id":"v_6337"}},{"type":"Feature","geometry":{"type":"LineString","coordinates":[[37.635629112,55.698693697],[37.634327237,55.699635455]]},"properties":{"cost":1.193468904E7,"length":132.98,"diameter":100,"flow_tph":15.99,"depth_end":null,"variant_id":"v3","depth_start":null,"end_node_id":"2798","laying_method":"base","start_node_id":"2774","object_type":"heat_network","id":"v_7298"}},{"type":"Feature","geometry":{"type":"LineString","coordinates":[[37.635333306,55.698475132],[37.634545116,55.69865048]]},"properties":{"cost":4779081.0,"length":53.25,"diameter":100,"flow_tph":18.03,"depth_end":null,"variant_id":"v3","depth_start":null,"end_node_id":"2800","laying_method":"base","start_node_id":"2772","object_type":"heat_network","id":"v_7171"}},{"type":"Feature","geometry":{"type":"LineString","coordinates":[[37.633466552,55.697592124],[37.633656811,55.697686393]]},"properties":{"cost":1427890.68,"length":15.91,"diameter":100,"flow_tph":19.73,"depth_end":null,"variant_id":"v3","depth_start":null,"end_node_id":"2870","laying_method":"base","start_node_id":"2857","object_type":"heat_network","id":"v_10051"}},{"type":"Feature","geometry":{"type":"LineString","coordinates":[[37.634405404,55.699481064],[37.634963485,55.699015136]]},"properties":{"cost":6090290.48,"length":62.61,"diameter":125,"flow_tph":24.87,"depth_end":null,"variant_id":"v3","depth_start":null,"end_node_id":"2801","laying_method":"base","start_node_id":"1454","object_type":"heat_network","id":"v_6214"}},{"type":"Feature","geometry":{"type":"LineString","coordinates":[[37.633901056,55.697722607],[37.634205497,55.697892803]]},"properties":{"cost":2416644.4,"length":26.93,"diameter":100,"flow_tph":19.77,"depth_end":null,"variant_id":"v3","depth_start":null,"end_node_id":"2873","laying_method":"base","start_node_id":"1465","object_type":"heat_network","id":"v_6278"}},{"type":"Feature","geometry":{"type":"LineString","coordinates":[[37.635986669,55.699413904],[37.635784206,55.698923763]]},"properties":{"cost":5910291.13,"length":56.02,"diameter":150,"flow_tph":47.7,"depth_end":null,"variant_id":"v3","depth_start":null,"end_node_id":"2775","laying_method":"base","start_node_id":"2756","object_type":"heat_network","id":"v_6473"}},{"type":"Feature","geometry":{"type":"LineString","coordinates":[[37.633752441,55.697472329],[37.633466552,55.697592124]]},"properties":{"cost":2008291.0,"length":22.38,"diameter":100,"flow_tph":19.73,"depth_end":null,"variant_id":"v3","depth_start":null,"end_node_id":"2857","laying_method":"base","start_node_id":"1466","object_type":"heat_network","id":"v_6286"}},{"type":"Feature","geometry":{"type":"LineString","coordinates":[[37.635417056,55.698614732],[37.635238998,55.698855509]]},"properties":{"cost":3064134.29,"length":29.04,"diameter":150,"flow_tph":58.37,"depth_end":null,"variant_id":"v3","depth_start":null,"end_node_id":"2771","laying_method":"base","start_node_id":"1458","object_type":"heat_network","id":"v_6352"}},{"type":"Feature","geometry":{"type":"LineString","coordinates":[[37.635417056,55.698614732],[37.635333306,55.698475132]]},"properties":{"cost":2219973.82,"length":16.41,"diameter":250,"flow_tph":197.09,"depth_end":null,"variant_id":"v3","depth_start":null,"end_node_id":"2772","laying_method":"base","start_node_id":"1458","object_type":"heat_network","id":"v_6353"}},{"type":"Feature","geometry":{"type":"LineString","coordinates":[[37.63609324,55.697296569],[37.635980075,55.697449098]]},"properties":{"cost":1790540.93,"length":18.41,"diameter":125,"flow_tph":33.14,"depth_end":null,"variant_id":"v3","depth_start":null,"end_node_id":"2845","laying_method":"base","start_node_id":"1462","object_type":"heat_network","id":"v_6226"}},{"type":"Feature","geometry":{"type":"LineString","coordinates":[[37.635417056,55.698614732],[37.635553096,55.69932127]]},"properties":{"cost":7099336.04,"length":79.1,"diameter":100,"flow_tph":18.76,"depth_end":null,"variant_id":"v3","depth_start":null,"end_node_id":"2773","laying_method":"base","start_node_id":"1458","object_type":"heat_network","id":"v_6354"}},{"type":"Feature","geometry":{"type":"LineString","coordinates":[[37.635417056,55.698614732],[37.638461839,55.697638533]]},"properties":{"cost":3.30171418E7,"length":220.08,"diameter":300,"flow_tph":364.0,"depth_end":null,"variant_id":"v3","depth_start":null,"end_node_id":"1469","laying_method":"base","start_node_id":"1458","object_type":"heat_network","id":"v_5971"}},{"type":"Feature","geometry":{"type":"LineString","coordinates":[[37.635417056,55.698614732],[37.635629112,55.698693697]]},"properties":{"cost":1432916.57,"length":15.97,"diameter":100,"flow_tph":15.99,"depth_end":null,"variant_id":"v3","depth_start":null,"end_node_id":"2774","laying_method":"base","start_node_id":"1458","object_type":"heat_network","id":"v_6355"}},{"type":"Feature","geometry":{"type":"LineString","coordinates":[[37.635333306,55.698475132],[37.635082576,55.698312476]]},"properties":{"cost":2886960.83,"length":24.0,"diameter":200,"flow_tph":74.03,"depth_end":null,"variant_id":"v3","depth_start":null,"end_node_id":"2838","laying_method":"base","start_node_id":"2772","object_type":"heat_network","id":"v_7187"}},{"type":"Feature","geometry":{"type":"LineString","coordinates":[[37.635417056,55.698614732],[37.635784206,55.698923763]]},"properties":{"cost":4370205.45,"length":41.42,"diameter":150,"flow_tph":47.7,"depth_end":null,"variant_id":"v3","depth_start":null,"end_node_id":"2775","laying_method":"base","start_node_id":"1458","object_type":"heat_network","id":"v_6356"}},{"type":"Feature","geometry":{"type":"LineString","coordinates":[[37.635553096,55.69932127],[37.635398447,55.699664567]]},"properties":{"cost":3538494.4,"length":39.43,"diameter":100,"flow_tph":18.76,"depth_end":null,"variant_id":"v3","depth_start":null,"end_node_id":"2808","laying_method":"base","start_node_id":"2773","object_type":"heat_network","id":"v_7253"}},{"type":"Feature","geometry":{"type":"LineString","coordinates":[[37.640764466,55.698407392],[37.639572728,55.698671674]]},"properties":{"cost":9679611.73,"length":80.48,"diameter":200,"flow_tph":76.27,"depth_end":null,"variant_id":"v3","depth_start":null,"end_node_id":"1511","laying_method":"base","start_node_id":"1510","object_type":"heat_network","id":"v_5526"}},{"type":"Feature","geometry":{"type":"LineString","coordinates":[[37.632765879,55.697563709],[37.632446869,55.697439356]]},"properties":{"cost":2370202.65,"length":24.37,"diameter":125,"flow_tph":31.89,"depth_end":null,"variant_id":"v3","depth_start":null,"end_node_id":"2903","laying_method":"base","start_node_id":"2853","object_type":"heat_network","id":"v_9943"}},{"type":"Feature","geometry":{"type":"LineString","coordinates":[[37.635333306,55.698475132],[37.635980075,55.697449098]]},"properties":{"cost":1.17916755E7,"length":121.22,"diameter":125,"flow_tph":33.14,"depth_end":null,"variant_id":"v3","depth_start":null,"end_node_id":"2845","laying_method":"base","start_node_id":"2772","object_type":"heat_network","id":"v_7194"}},{"type":"Feature","geometry":{"type":"LineString","coordinates":[[37.633204499,55.699575075],[37.633461561,55.699510742]]},"properties":{"cost":1389645.66,"length":17.67,"diameter":65,"flow_tph":4.08,"depth_end":null,"variant_id":"v3","depth_start":null,"end_node_id":"2866","laying_method":"base","start_node_id":"1463","object_type":"heat_network","id":"v_6239"}},{"type":"Feature","geometry":{"type":"LineString","coordinates":[[37.639538146,55.696851829],[37.638461839,55.697638533]]},"properties":{"cost":9931064.94,"length":110.66,"diameter":100,"flow_tph":20.63,"depth_end":null,"variant_id":"v3","depth_start":null,"end_node_id":"1493","laying_method":"base","start_node_id":"1489","object_type":"heat_network","id":"v_5536"}},{"type":"Feature","geometry":{"type":"LineString","coordinates":[[37.634289664,55.697393635],[37.635082576,55.698312476]]},"properties":{"cost":1.10667822E7,"length":113.77,"diameter":125,"flow_tph":34.53,"depth_end":null,"variant_id":"v3","depth_start":null,"end_node_id":"2838","laying_method":"base","start_node_id":"2828","object_type":"heat_network","id":"v_9186"}},{"type":"Feature","geometry":{"type":"LineString","coordinates":[[37.634963485,55.699015136],[37.633461561,55.699510742]]},"properties":{"cost":8597592.17,"length":109.34,"diameter":65,"flow_tph":4.08,"depth_end":null,"variant_id":"v3","depth_start":null,"end_node_id":"2866","laying_method":"base","start_node_id":"2801","object_type":"heat_network","id":"v_8549"}},{"type":"Feature","geometry":{"type":"LineString","coordinates":[[37.632012226,55.700048261],[37.632162838,55.700072039]]},"properties":{"cost":882222.84,"length":9.83,"diameter":100,"flow_tph":15.99,"depth_end":null,"variant_id":"v3","depth_start":null,"end_node_id":"2826","laying_method":"base","start_node_id":"1459","object_type":"heat_network","id":"v_6375"}},{"type":"Feature","geometry":{"type":"LineString","coordinates":[[37.638280304,55.697956786],[37.638461839,55.697638533]]},"properties":{"cost":3620089.13,"length":37.22,"diameter":125,"flow_tph":27.82,"depth_end":null,"variant_id":"v3","depth_start":null,"end_node_id":"1493","laying_method":"base","start_node_id":"1488","object_type":"heat_network","id":"v_5672"}},{"type":"Feature","geometry":{"type":"LineString","coordinates":[[37.635082576,55.698312476],[37.633656811,55.697686393]]},"properties":{"cost":1.01886417E7,"length":113.53,"diameter":100,"flow_tph":19.73,"depth_end":null,"variant_id":"v3","depth_start":null,"end_node_id":"2870","laying_method":"base","start_node_id":"2838","object_type":"heat_network","id":"v_9577"}},{"type":"Feature","geometry":{"type":"LineString","coordinates":[[37.632034439,55.69704569],[37.632446869,55.697439356]]},"properties":{"cost":4952367.53,"length":50.91,"diameter":125,"flow_tph":31.89,"depth_end":null,"variant_id":"v3","depth_start":null,"end_node_id":"2903","laying_method":"base","start_node_id":"1467","object_type":"heat_network","id":"v_6316"}},{"type":"Feature","geometry":{"type":"LineString","coordinates":[[37.632745397,55.70010957],[37.634268624,55.699336188]]},"properties":{"cost":1.252415625E7,"length":128.75,"diameter":125,"flow_tph":29.42,"depth_end":null,"variant_id":"v3","depth_start":null,"end_node_id":"2797","laying_method":"base","start_node_id":"2787","object_type":"heat_network","id":"v_7852"}},{"type":"Feature","geometry":{"type":"LineString","coordinates":[[37.634545116,55.69865048],[37.63282015,55.699699]]},"properties":{"cost":1.429658716E7,"length":159.3,"diameter":100,"flow_tph":18.03,"depth_end":null,"variant_id":"v3","depth_start":null,"end_node_id":"2861","laying_method":"base","start_node_id":"2800","object_type":"heat_network","id":"v_8492"}},{"type":"Feature","geometry":{"type":"LineString","coordinates":[[37.635082576,55.698312476],[37.634205497,55.697892803]]},"properties":{"cost":6485100.73,"length":72.26,"diameter":100,"flow_tph":19.77,"depth_end":null,"variant_id":"v3","depth_start":null,"end_node_id":"2873","laying_method":"base","start_node_id":"2838","object_type":"heat_network","id":"v_9580"}},{"type":"Feature","geometry":{"type":"LineString","coordinates":[[37.635333306,55.698475132],[37.633839721,55.698587125]]},"properties":{"cost":9212720.7,"length":94.71,"diameter":125,"flow_tph":40.0,"depth_end":null,"variant_id":"v3","depth_start":null,"end_node_id":"2871","laying_method":"base","start_node_id":"2772","object_type":"heat_network","id":"v_7213"}},{"type":"Feature","geometry":{"type":"LineString","coordinates":[[37.632202634,55.700314417],[37.632321558,55.700263158]]},"properties":{"cost":843900.44,"length":9.4,"diameter":100,"flow_tph":18.03,"depth_end":null,"variant_id":"v3","depth_start":null,"end_node_id":"2817","laying_method":"base","start_node_id":"1460","object_type":"heat_network","id":"v_6382"}},{"type":"Feature","geometry":{"type":"LineString","coordinates":[[37.635333306,55.698475132],[37.633870304,55.698110419]]},"properties":{"cost":9778374.82,"length":100.52,"diameter":125,"flow_tph":31.89,"depth_end":null,"variant_id":"v3","depth_start":null,"end_node_id":"2872","laying_method":"base","start_node_id":"2772","object_type":"heat_network","id":"v_7214"}},{"type":"Feature","geometry":{"type":"LineString","coordinates":[[37.634446268,55.697252392],[37.634289664,55.697393635]]},"properties":{"cost":1804353.98,"length":18.55,"diameter":125,"flow_tph":34.53,"depth_end":null,"variant_id":"v3","depth_start":null,"end_node_id":"2828","laying_method":"base","start_node_id":"1461","object_type":"heat_network","id":"v_6385"}},{"type":"Feature","geometry":{"type":"LineString","coordinates":[[37.634582926,55.699854464],[37.635398447,55.699664567]]},"properties":{"cost":4976257.36,"length":55.45,"diameter":100,"flow_tph":18.76,"depth_end":null,"variant_id":"v3","depth_start":null,"end_node_id":"2808","laying_method":"base","start_node_id":"1455","object_type":"heat_network","id":"v_6325"}},{"type":"Feature","geometry":{"type":"LineString","coordinates":[[37.632846602,55.70027576],[37.632745397,55.70010957]]},"properties":{"cost":1902796.28,"length":19.56,"diameter":125,"flow_tph":29.42,"depth_end":null,"variant_id":"v3","depth_start":null,"end_node_id":"2787","laying_method":"base","start_node_id":"1456","object_type":"heat_network","id":"v_6328"}},{"type":"Feature","geometry":{"type":"LineString","coordinates":[[37.635238998,55.698855509],[37.634268624,55.699336188]]},"properties":{"cost":7892309.85,"length":81.13,"diameter":125,"flow_tph":29.42,"depth_end":null,"variant_id":"v3","depth_start":null,"end_node_id":"2797","laying_method":"base","start_node_id":"2771","object_type":"heat_network","id":"v_7096"}},{"type":"Feature","geometry":{"type":"LineString","coordinates":[[37.632321558,55.700263158],[37.63282015,55.699699]]},"properties":{"cost":6298335.14,"length":70.18,"diameter":100,"flow_tph":18.03,"depth_end":null,"variant_id":"v3","depth_start":null,"end_node_id":"2861","laying_method":"base","start_node_id":"2817","object_type":"heat_network","id":"v_8890"}},{"type":"Feature","geometry":{"type":"LineString","coordinates":[[37.634327237,55.699635455],[37.632162838,55.700072039]]},"properties":{"cost":1.296526532E7,"length":144.46,"diameter":100,"flow_tph":15.99,"depth_end":null,"variant_id":"v3","depth_start":null,"end_node_id":"2826","laying_method":"base","start_node_id":"2798","object_type":"heat_network","id":"v_8379"}},{"type":"Feature","geometry":{"type":"LineString","coordinates":[[37.632765879,55.697563709],[37.633870304,55.698110419]]},"properties":{"cost":8980038.9,"length":92.32,"diameter":125,"flow_tph":31.89,"depth_end":null,"variant_id":"v3","depth_start":null,"end_node_id":"2872","laying_method":"base","start_node_id":"2853","object_type":"heat_network","id":"v_9915"}},{"type":"Feature","geometry":{"type":"LineString","coordinates":[[37.635238998,55.698855509],[37.634963485,55.699015136]]},"properties":{"cost":2413490.03,"length":24.81,"diameter":125,"flow_tph":28.95,"depth_end":null,"variant_id":"v3","depth_start":null,"end_node_id":"2801","laying_method":"base","start_node_id":"2771","object_type":"heat_network","id":"v_7100"}},{"type":"Feature","geometry":{"type":"LineString","coordinates":[[37.633839721,55.698587125],[37.633243533,55.6986993]]},"properties":{"cost":3842362.5,"length":39.5,"diameter":125,"flow_tph":40.0,"depth_end":null,"variant_id":"v3","depth_start":null,"end_node_id":"2906","laying_method":"base","start_node_id":"2871","object_type":"heat_network","id":"v_10493"}},{"type":"Feature","geometry":{"type":"LineString","coordinates":[[37.633139322,55.698653068],[37.633243533,55.6986993]]},"properties":{"cost":810300.75,"length":8.33,"diameter":125,"flow_tph":40.0,"depth_end":null,"variant_id":"v3","depth_start":null,"end_node_id":"2906","laying_method":"base","start_node_id":"1464","object_type":"heat_network","id":"v_6271"}},{"type":"Feature","geometry":{"type":"Point","coordinates":[37.639572728,55.698671674]},"properties":{"cost":3000000.0,"diameter":200,"variant_id":"v3","object_type":"heat_chamber","id":"ch_1511"}},{"type":"Feature","geometry":{"type":"Point","coordinates":[37.638461839,55.697638533]},"properties":{"cost":5000000.0,"diameter":300,"variant_id":"v3","object_type":"heat_chamber","id":"ch_1469"}},{"type":"Feature","geometry":null,"properties":{"rank":1,"score":16.821,"variant_id":"v3","calculated_cost":2.9557424424E8,"construction_cost":2.9557424424E8,"new_network_length":2848.31,"unconnected_oks_ids":[],"unconnected_penalty":0.0,"chamber_construction_cost":8000000.0,"existing_chamber_tie_in_cost":5000000.0,"existing_chamber_tie_in_count":1,"object_type":"variant_summary","id":"summary_v3"}}]}