{"type":"FeatureCollection","features":[{"type":"Feature","geometry":{"type":"LineString","coordinates":[[37.632846602,55.70027576],[37.632745397,55.70010957]]},"properties":{"cost":1902796.28,"length":19.56,"diameter":125,"flow_tph":29.42,"depth_end":null,"variant_id":"v1","depth_start":null,"end_node_id":"8599","laying_method":"base","start_node_id":"7311","object_type":"heat_network","id":"v_28352"}},{"type":"Feature","geometry":{"type":"LineString","coordinates":[[37.635238998,55.698855509],[37.634268624,55.699336188]]},"properties":{"cost":8560204.94,"length":81.13,"diameter":150,"flow_tph":47.45,"depth_end":null,"variant_id":"v1","depth_start":null,"end_node_id":"8609","laying_method":"base","start_node_id":"8583","object_type":"heat_network","id":"v_29120"}},{"type":"Feature","geometry":{"type":"LineString","coordinates":[[37.634327237,55.699635455],[37.632162838,55.700072039]]},"properties":{"cost":1.296526532E7,"length":144.46,"diameter":100,"flow_tph":15.99,"depth_end":null,"variant_id":"v1","depth_start":null,"end_node_id":"8638","laying_method":"base","start_node_id":"8610","object_type":"heat_network","id":"v_30403"}},{"type":"Feature","geometry":{"type":"LineString","coordinates":[[37.632765879,55.697563709],[37.633870304,55.698110419]]},"properties":{"cost":8980038.9,"length":92.32,"diameter":125,"flow_tph":31.89,"depth_end":null,"variant_id":"v1","depth_start":null,"end_node_id":"8684","laying_method":"base","start_node_id":"8665","object_type":"heat_network","id":"v_31939"}},{"type":"Feature","geometry":{"type":"LineString","coordinates":[[37.635238998,55.698855509],[37.634963485,55.699015136]]},"properties":{"cost":2617734.18,"length":24.81,"diameter":150,"flow_tph":47.71,"depth_end":null,"variant_id":"v1","depth_start":null,"end_node_id":"8613","laying_method":"base","start_node_id":"8583","object_type":"heat_network","id":"v_29124"}},{"type":"Feature","geometry":{"type":"LineString","coordinates":[[37.633139322,55.698653068],[37.633243533,55.6986993]]},"properties":{"cost":810300.75,"length":8.33,"diameter":125,"flow_tph":40.0,"depth_end":null,"variant_id":"v1","depth_start":null,"end_node_id":"8718","laying_method":"base","start_node_id":"7319","object_type":"heat_network","id":"v_28295"}},{"type":"Feature","geometry":{"type":"LineString","coordinates":[[37.636381851,55.700155199],[37.635986669,55.699413904]]},"properties":{"cost":9091116.16,"length":86.17,"diameter":150,"flow_tph":47.7,"depth_end":null,"variant_id":"v1","depth_start":null,"end_node_id":"8568","laying_method":"base","start_node_id":"7312","object_type":"heat_network","id":"v_28361"}},{"type":"Feature","geometry":{"type":"LineString","coordinates":[[37.635629112,55.698693697],[37.634327237,55.699635455]]},"properties":{"cost":1.193468904E7,"length":132.98,"diameter":100,"flow_tph":15.99,"depth_end":null,"variant_id":"v1","depth_start":null,"end_node_id":"8610","laying_method":"base","start_node_id":"8586","object_type":"heat_network","id":"v_29322"}},{"type":"Feature","geometry":{"type":"LineString","coordinates":[[37.633466552,55.697592124],[37.633656811,55.697686393]]},"properties":{"cost":1427890.68,"length":15.91,"diameter":100,"flow_tph":19.73,"depth_end":null,"variant_id":"v1","depth_start":null,"end_node_id":"8682","laying_method":"base","start_node_id":"8669","object_type":"heat_network","id":"v_32075"}},{"type":"Feature","geometry":{"type":"LineString","coordinates":[[37.634405404,55.699481064],[37.634963485,55.699015136]]},"properties":{"cost":6090290.48,"length":62.61,"diameter":125,"flow_tph":24.87,"depth_end":null,"variant_id":"v1","depth_start":null,"end_node_id":"8613","laying_method":"base","start_node_id":"7309","object_type":"heat_network","id":"v_28238"}},{"type":"Feature","geometry":{"type":"LineString","coordinates":[[37.633901056,55.697722607],[37.634205497,55.697892803]]},"properties":{"cost":2416644.4,"length":26.93,"diameter":100,"flow_tph":19.77,"depth_end":null,"variant_id":"v1","depth_start":null,"end_node_id":"8685","laying_method":"base","start_node_id":"7320","object_type":"heat_network","id":"v_28302"}},{"type":"Feature","geometry":{"type":"LineString","coordinates":[[37.634268624,55.699336188],[37.632321558,55.700263158]]},"properties":{"cost":1.436605211E7,"length":160.07,"diameter":100,"flow_tph":18.03,"depth_end":null,"variant_id":"v1","depth_start":null,"end_node_id":"8629","laying_method":"base","start_node_id":"8609","object_type":"heat_network","id":"v_30350"}},{"type":"Feature","geometry":{"type":"LineString","coordinates":[[37.634963485,55.699015136],[37.634651523,55.699696985]]},"properties":{"cost":7034717.48,"length":78.38,"diameter":100,"flow_tph":18.76,"depth_end":null,"variant_id":"v1","depth_start":null,"end_node_id":"8616","laying_method":"base","start_node_id":"8613","object_type":"heat_network","id":"v_30542"}},{"type":"Feature","geometry":{"type":"LineString","coordinates":[[37.635986669,55.699413904],[37.635784206,55.698923763]]},"properties":{"cost":5910291.13,"length":56.02,"diameter":150,"flow_tph":47.7,"depth_end":null,"variant_id":"v1","depth_start":null,"end_node_id":"8587","laying_method":"base","start_node_id":"8568","object_type":"heat_network","id":"v_28497"}},{"type":"Feature","geometry":{"type":"LineString","coordinates":[[37.633752441,55.697472329],[37.633466552,55.697592124]]},"properties":{"cost":2008291.0,"length":22.38,"diameter":100,"flow_tph":19.73,"depth_end":null,"variant_id":"v1","depth_start":null,"end_node_id":"8669","laying_method":"base","start_node_id":"7322","object_type":"heat_network","id":"v_28310"}},{"type":"Feature","geometry":{"type":"LineString","coordinates":[[37.635417056,55.698614732],[37.635238998,55.698855509]]},"properties":{"cost":3493026.55,"length":29.04,"diameter":200,"flow_tph":95.16,"depth_end":null,"variant_id":"v1","depth_start":null,"end_node_id":"8583","laying_method":"base","start_node_id":"7313","object_type":"heat_network","id":"v_28376"}},{"type":"Feature","geometry":{"type":"LineString","coordinates":[[37.640764466,55.698407392],[37.639557137,55.69865159]]},"properties":{"cost":9695488.03,"length":80.61,"diameter":200,"flow_tph":76.27,"depth_end":null,"variant_id":"v1","depth_start":null,"end_node_id":"7289","laying_method":"base","start_node_id":"7288","object_type":"heat_network","id":"v_27544"}},{"type":"Feature","geometry":{"type":"LineString","coordinates":[[37.635417056,55.698614732],[37.635333306,55.698475132]]},"properties":{"cost":2219973.82,"length":16.41,"diameter":250,"flow_tph":179.06,"depth_end":null,"variant_id":"v1","depth_start":null,"end_node_id":"8584","laying_method":"base","start_node_id":"7313","object_type":"heat_network","id":"v_28377"}},{"type":"Feature","geometry":{"type":"LineString","coordinates":[[37.635417056,55.698614732],[37.638461839,55.697638533]]},"properties":{"cost":3.30171418E7,"length":220.08,"diameter":300,"flow_tph":364.0,"depth_end":null,"variant_id":"v1","depth_start":null,"end_node_id":"7324","laying_method":"base","start_node_id":"7313","object_type":"heat_network","id":"v_27994"}},{"type":"Feature","geometry":{"type":"LineString","coordinates":[[37.63609324,55.697296569],[37.635980075,55.697449098]]},"properties":{"cost":1790540.93,"length":18.41,"diameter":125,"flow_tph":33.14,"depth_end":null,"variant_id":"v1","depth_start":null,"end_node_id":"8657","laying_method":"base","start_node_id":"7317","object_type":"heat_network","id":"v_28250"}},{"type":"Feature","geometry":{"type":"LineString","coordinates":[[37.635417056,55.698614732],[37.635629112,55.698693697]]},"properties":{"cost":1432916.57,"length":15.97,"diameter":100,"flow_tph":15.99,"depth_end":null,"variant_id":"v1","depth_start":null,"end_node_id":"8586","laying_method":"base","start_node_id":"7313","object_type":"heat_network","id":"v_28379"}},{"type":"Feature","geometry":{"type":"LineString","coordinates":[[37.635333306,55.698475132],[37.635082576,55.698312476]]},"properties":{"cost":2886960.83,"length":24.0,"diameter":200,"flow_tph":74.03,"depth_end":null,"variant_id":"v1","depth_start":null,"end_node_id":"8650","laying_method":"base","start_node_id":"8584","object_type":"heat_network","id":"v_29211"}},{"type":"Feature","geometry":{"type":"LineString","coordinates":[[37.635417056,55.698614732],[37.635784206,55.698923763]]},"properties":{"cost":4370205.45,"length":41.42,"diameter":150,"flow_tph":47.7,"depth_end":null,"variant_id":"v1","depth_start":null,"end_node_id":"8587","laying_method":"base","start_node_id":"7313","object_type":"heat_network","id":"v_28380"}},{"type":"Feature","geometry":{"type":"LineString","coordinates":[[37.632765879,55.697563709],[37.632446869,55.697439356]]},"properties":{"cost":2370202.65,"length":24.37,"diameter":125,"flow_tph":31.89,"depth_end":null,"variant_id":"v1","depth_start":null,"end_node_id":"8715","laying_method":"base","start_node_id":"8665","object_type":"heat_network","id":"v_31967"}},{"type":"Feature","geometry":{"type":"LineString","coordinates":[[37.635333306,55.698475132],[37.635980075,55.697449098]]},"properties":{"cost":1.17916755E7,"length":121.22,"diameter":125,"flow_tph":33.14,"depth_end":null,"variant_id":"v1","depth_start":null,"end_node_id":"8657","laying_method":"base","start_node_id":"8584","object_type":"heat_network","id":"v_29218"}},{"type":"Feature","geometry":{"type":"LineString","coordinates":[[37.633204499,55.699575075],[37.633461561,55.699510742]]},"properties":{"cost":1389645.66,"length":17.67,"diameter":65,"flow_tph":4.08,"depth_end":null,"variant_id":"v1","depth_start":null,"end_node_id":"8678","laying_method":"base","start_node_id":"7318","object_type":"heat_network","id":"v_28263"}},{"type":"Feature","geometry":{"type":"LineString","coordinates":[[37.634289664,55.697393635],[37.635082576,55.698312476]]},"properties":{"cost":1.10667822E7,"length":113.77,"diameter":125,"flow_tph":34.53,"depth_end":null,"variant_id":"v1","depth_start":null,"end_node_id":"8650","laying_method":"base","start_node_id":"8640","object_type":"heat_network","id":"v_31210"}},{"type":"Feature","geometry":{"type":"LineString","coordinates":[[37.634963485,55.699015136],[37.633461561,55.699510742]]},"properties":{"cost":8597592.17,"length":109.34,"diameter":65,"flow_tph":4.08,"depth_end":null,"variant_id":"v1","depth_start":null,"end_node_id":"8678","laying_method":"base","start_node_id":"8613","object_type":"heat_network","id":"v_30573"}},{"type":"Feature","geometry":{"type":"LineString","coordinates":[[37.632012226,55.700048261],[37.632162838,55.700072039]]},"properties":{"cost":882222.84,"length":9.83,"diameter":100,"flow_tph":15.99,"depth_end":null,"variant_id":"v1","depth_start":null,"end_node_id":"8638","laying_method":"base","start_node_id":"7314","object_type":"heat_network","id":"v_28399"}},{"type":"Feature","geometry":{"type":"LineString","coordinates":[[37.639538146,55.696851829],[37.638240271,55.69734639]]},"properties":{"cost":8832818.66,"length":98.42,"diameter":100,"flow_tph":20.63,"depth_end":null,"variant_id":"v1","depth_start":null,"end_node_id":"7275","laying_method":"base","start_node_id":"7267","object_type":"heat_network","id":"v_27567"}},{"type":"Feature","geometry":{"type":"LineString","coordinates":[[37.638280304,55.697956786],[37.638461839,55.697638533]]},"properties":{"cost":3620089.13,"length":37.22,"diameter":125,"flow_tph":27.82,"depth_end":null,"variant_id":"v1","depth_start":null,"end_node_id":"7271","laying_method":"base","start_node_id":"7266","object_type":"heat_network","id":"v_27696"}},{"type":"Feature","geometry":{"type":"LineString","coordinates":[[37.635082576,55.698312476],[37.633656811,55.697686393]]},"properties":{"cost":1.01886417E7,"length":113.53,"diameter":100,"flow_tph":19.73,"depth_end":null,"variant_id":"v1","depth_start":null,"end_node_id":"8682","laying_method":"base","start_node_id":"8650","object_type":"heat_network","id":"v_31601"}},{"type":"Feature","geometry":{"type":"LineString","coordinates":[[37.632034439,55.69704569],[37.632446869,55.697439356]]},"properties":{"cost":4952367.53,"length":50.91,"diameter":125,"flow_tph":31.89,"depth_end":null,"variant_id":"v1","depth_start":null,"end_node_id":"8715","laying_method":"base","start_node_id":"7321","object_type":"heat_network","id":"v_28340"}},{"type":"Feature","geometry":{"type":"LineString","coordinates":[[37.632745397,55.70010957],[37.634268624,55.699336188]]},"properties":{"cost":1.252415625E7,"length":128.75,"diameter":125,"flow_tph":29.42,"depth_end":null,"variant_id":"v1","depth_start":null,"end_node_id":"8609","laying_method":"base","start_node_id":"8599","object_type":"heat_network","id":"v_29876"}},{"type":"Feature","geometry":{"type":"LineString","coordinates":[[37.635082576,55.698312476],[37.634205497,55.697892803]]},"properties":{"cost":6485100.73,"length":72.26,"diameter":100,"flow_tph":19.77,"depth_end":null,"variant_id":"v1","depth_start":null,"end_node_id":"8685","laying_method":"base","start_node_id":"8650","object_type":"heat_network","id":"v_31604"}},{"type":"Feature","geometry":{"type":"LineString","coordinates":[[37.632202634,55.700314417],[37.632321558,55.700263158]]},"properties":{"cost":843900.44,"length":9.4,"diameter":100,"flow_tph":18.03,"depth_end":null,"variant_id":"v1","depth_start":null,"end_node_id":"8629","laying_method":"base","start_node_id":"7315","object_type":"heat_network","id":"v_28406"}},{"type":"Feature","geometry":{"type":"LineString","coordinates":[[37.635333306,55.698475132],[37.633870304,55.698110419]]},"properties":{"cost":9778374.82,"length":100.52,"diameter":125,"flow_tph":31.89,"depth_end":null,"variant_id":"v1","depth_start":null,"end_node_id":"8684","laying_method":"base","start_node_id":"8584","object_type":"heat_network","id":"v_29238"}},{"type":"Feature","geometry":{"type":"LineString","coordinates":[[37.634582926,55.699854464],[37.634651523,55.699696985]]},"properties":{"cost":1619951.4,"length":18.05,"diameter":100,"flow_tph":18.76,"depth_end":null,"variant_id":"v1","depth_start":null,"end_node_id":"8616","laying_method":"base","start_node_id":"7310","object_type":"heat_network","id":"v_28345"}},{"type":"Feature","geometry":{"type":"LineString","coordinates":[[37.634446268,55.697252392],[37.634289664,55.697393635]]},"properties":{"cost":1804353.98,"length":18.55,"diameter":125,"flow_tph":34.53,"depth_end":null,"variant_id":"v1","depth_start":null,"end_node_id":"8640","laying_method":"base","start_node_id":"7316","object_type":"heat_network","id":"v_28409"}},{"type":"Feature","geometry":{"type":"LineString","coordinates":[[37.635333306,55.698475132],[37.633243533,55.6986993]]},"properties":{"cost":1.300634843E7,"length":133.71,"diameter":125,"flow_tph":40.0,"depth_end":null,"variant_id":"v1","depth_start":null,"end_node_id":"8718","laying_method":"base","start_node_id":"8584","object_type":"heat_network","id":"v_29244"}},{"type":"Feature","geometry":{"type":"Point","coordinates":[37.638240271,55.69734639]},"properties":{"cost":3000000.0,"diameter":100,"variant_id":"v1","object_type":"heat_chamber","id":"ch_7275"}},{"type":"Feature","geometry":null,"properties":{"rank":2,"score":15.8243,"variant_id":"v1","calculated_cost":2.8277680088E8,"construction_cost":2.8277680088E8,"new_network_length":2635.5,"unconnected_oks_ids":[],"unconnected_penalty":0.0,"chamber_construction_cost":3000000.0,"existing_chamber_tie_in_cost":15000000,"existing_chamber_tie_in_count":3,"object_type":"variant_summary","id":"summary_v1"}},{"type":"Feature","geometry":{"type":"LineString","coordinates":[[37.632846602,55.70027576],[37.632745397,55.70010957]]},"properties":{"cost":1902796.28,"length":19.56,"diameter":125,"flow_tph":29.42,"depth_end":null,"variant_id":"v2","depth_start":null,"end_node_id":"8599","laying_method":"base","start_node_id":"7311","object_type":"heat_network","id":"v_28352"}},{"type":"Feature","geometry":{"type":"LineString","coordinates":[[37.635238998,55.698855509],[37.634268624,55.699336188]]},"properties":{"cost":8560204.94,"length":81.13,"diameter":150,"flow_tph":47.45,"depth_end":null,"variant_id":"v2","depth_start":null,"end_node_id":"8609","laying_method":"base","start_node_id":"8583","object_type":"heat_network","id":"v_29120"}},{"type":"Feature","geometry":{"type":"LineString","coordinates":[[37.634327237,55.699635455],[37.632162838,55.700072039]]},"properties":{"cost":1.296526532E7,"length":144.46,"diameter":100,"flow_tph":15.99,"depth_end":null,"variant_id":"v2","depth_start":null,"end_node_id":"8638","laying_method":"base","start_node_id":"8610","object_type":"heat_network","id":"v_30403"}},{"type":"Feature","geometry":{"type":"LineString","coordinates":[[37.632765879,55.697563709],[37.633870304,55.698110419]]},"properties":{"cost":8980038.9,"length":92.32,"diameter":125,"flow_tph":31.89,"depth_end":null,"variant_id":"v2","depth_start":null,"end_node_id":"8684","laying_method":"base","start_node_id":"8665","object_type":"heat_network","id":"v_31939"}},{"type":"Feature","geometry":{"type":"LineString","coordinates":[[37.635238998,55.698855509],[37.634963485,55.699015136]]},"properties":{"cost":2617734.18,"length":24.81,"diameter":150,"flow_tph":47.71,"depth_end":null,"variant_id":"v2","depth_start":null,"end_node_id":"8613","laying_method":"base","start_node_id":"8583","object_type":"heat_network","id":"v_29124"}},{"type":"Feature","geometry":{"type":"LineString","coordinates":[[37.633139322,55.698653068],[37.633243533,55.6986993]]},"properties":{"cost":810300.75,"length":8.33,"diameter":125,"flow_tph":40.0,"depth_end":null,"variant_id":"v2","depth_start":null,"end_node_id":"8718","laying_method":"base","start_node_id":"7319","object_type":"heat_network","id":"v_28295"}},{"type":"Feature","geometry":{"type":"LineString","coordinates":[[37.636381851,55.700155199],[37.635986669,55.699413904]]},"properties":{"cost":9091116.16,"length":86.17,"diameter":150,"flow_tph":47.7,"depth_end":null,"variant_id":"v2","depth_start":null,"end_node_id":"8568","laying_method":"base","start_node_id":"7312","object_type":"heat_network","id":"v_28361"}},{"type":"Feature","geometry":{"type":"LineString","coordinates":[[37.635629112,55.698693697],[37.634327237,55.699635455]]},"properties":{"cost":1.193468904E7,"length":132.98,"diameter":100,"flow_tph":15.99,"depth_end":null,"variant_id":"v2","depth_start":null,"end_node_id":"8610","laying_method":"base","start_node_id":"8586","object_type":"heat_network","id":"v_29322"}},{"type":"Feature","geometry":{"type":"LineString","coordinates":[[37.633466552,55.697592124],[37.633656811,55.697686393]]},"properties":{"cost":1427890.68,"length":15.91,"diameter":100,"flow_tph":19.73,"depth_end":null,"variant_id":"v2","depth_start":null,"end_node_id":"8682","laying_method":"base","start_node_id":"8669","object_type":"heat_network","id":"v_32075"}},{"type":"Feature","geometry":{"type":"LineString","coordinates":[[37.634405404,55.699481064],[37.634963485,55.699015136]]},"properties":{"cost":6090290.48,"length":62.61,"diameter":125,"flow_tph":24.87,"depth_end":null,"variant_id":"v2","depth_start":null,"end_node_id":"8613","laying_method":"base","start_node_id":"7309","object_type":"heat_network","id":"v_28238"}},{"type":"Feature","geometry":{"type":"LineString","coordinates":[[37.633901056,55.697722607],[37.634205497,55.697892803]]},"properties":{"cost":2416644.4,"length":26.93,"diameter":100,"flow_tph":19.77,"depth_end":null,"variant_id":"v2","depth_start":null,"end_node_id":"8685","laying_method":"base","start_node_id":"7320","object_type":"heat_network","id":"v_28302"}},{"type":"Feature","geometry":{"type":"LineString","coordinates":[[37.634268624,55.699336188],[37.632321558,55.700263158]]},"properties":{"cost":1.436605211E7,"length":160.07,"diameter":100,"flow_tph":18.03,"depth_end":null,"variant_id":"v2","depth_start":null,"end_node_id":"8629","laying_method":"base","start_node_id":"8609","object_type":"heat_network","id":"v_30350"}},{"type":"Feature","geometry":{"type":"LineString","coordinates":[[37.634963485,55.699015136],[37.634651523,55.699696985]]},"properties":{"cost":7034717.48,"length":78.38,"diameter":100,"flow_tph":18.76,"depth_end":null,"variant_id":"v2","depth_start":null,"end_node_id":"8616","laying_method":"base","start_node_id":"8613","object_type":"heat_network","id":"v_30542"}},{"type":"Feature","geometry":{"type":"LineString","coordinates":[[37.635986669,55.699413904],[37.635784206,55.698923763]]},"properties":{"cost":5910291.13,"length":56.02,"diameter":150,"flow_tph":47.7,"depth_end":null,"variant_id":"v2","depth_start":null,"end_node_id":"8587","laying_method":"base","start_node_id":"8568","object_type":"heat_network","id":"v_28497"}},{"type":"Feature","geometry":{"type":"LineString","coordinates":[[37.633752441,55.697472329],[37.633466552,55.697592124]]},"properties":{"cost":2008291.0,"length":22.38,"diameter":100,"flow_tph":19.73,"depth_end":null,"variant_id":"v2","depth_start":null,"end_node_id":"8669","laying_method":"base","start_node_id":"7322","object_type":"heat_network","id":"v_28310"}},{"type":"Feature","geometry":{"type":"LineString","coordinates":[[37.635417056,55.698614732],[37.635238998,55.698855509]]},"properties":{"cost":3493026.55,"length":29.04,"diameter":200,"flow_tph":95.16,"depth_end":null,"variant_id":"v2","depth_start":null,"end_node_id":"8583","laying_method":"base","start_node_id":"7313","object_type":"heat_network","id":"v_28376"}},{"type":"Feature","geometry":{"type":"LineString","coordinates":[[37.640764466,55.698407392],[37.639557137,55.69865159]]},"properties":{"cost":9695488.03,"length":80.61,"diameter":200,"flow_tph":76.27,"depth_end":null,"variant_id":"v2","depth_start":null,"end_node_id":"7289","laying_method":"base","start_node_id":"7288","object_type":"heat_network","id":"v_27544"}},{"type":"Feature","geometry":{"type":"LineString","coordinates":[[37.635417056,55.698614732],[37.635333306,55.698475132]]},"properties":{"cost":2219973.82,"length":16.41,"diameter":250,"flow_tph":179.06,"depth_end":null,"variant_id":"v2","depth_start":null,"end_node_id":"8584","laying_method":"base","start_node_id":"7313","object_type":"heat_network","id":"v_28377"}},{"type":"Feature","geometry":{"type":"LineString","coordinates":[[37.635417056,55.698614732],[37.638461839,55.697638533]]},"properties":{"cost":3.30171418E7,"length":220.08,"diameter":300,"flow_tph":364.0,"depth_end":null,"variant_id":"v2","depth_start":null,"end_node_id":"7324","laying_method":"base","start_node_id":"7313","object_type":"heat_network","id":"v_27994"}},{"type":"Feature","geometry":{"type":"LineString","coordinates":[[37.63609324,55.697296569],[37.635980075,55.697449098]]},"properties":{"cost":1790540.93,"length":18.41,"diameter":125,"flow_tph":33.14,"depth_end":null,"variant_id":"v2","depth_start":null,"end_node_id":"8657","laying_method":"base","start_node_id":"7317","object_type":"heat_network","id":"v_28250"}},{"type":"Feature","geometry":{"type":"LineString","coordinates":[[37.635417056,55.698614732],[37.635629112,55.698693697]]},"properties":{"cost":1432916.57,"length":15.97,"diameter":100,"flow_tph":15.99,"depth_end":null,"variant_id":"v2","depth_start":null,"end_node_id":"8586","laying_method":"base","start_node_id":"7313","object_type":"heat_network","id":"v_28379"}},{"type":"Feature","geometry":{"type":"LineString","coordinates":[[37.635333306,55.698475132],[37.635082576,55.698312476]]},"properties":{"cost":2886960.83,"length":24.0,"diameter":200,"flow_tph":74.03,"depth_end":null,"variant_id":"v2","depth_start":null,"end_node_id":"8650","laying_method":"base","start_node_id":"8584","object_type":"heat_network","id":"v_29211"}},{"type":"Feature","geometry":{"type":"LineString","coordinates":[[37.635417056,55.698614732],[37.635784206,55.698923763]]},"properties":{"cost":4370205.45,"length":41.42,"diameter":150,"flow_tph":47.7,"depth_end":null,"variant_id":"v2","depth_start":null,"end_node_id":"8587","laying_method":"base","start_node_id":"7313","object_type":"heat_network","id":"v_28380"}},{"type":"Feature","geometry":{"type":"LineString","coordinates":[[37.632765879,55.697563709],[37.632446869,55.697439356]]},"properties":{"cost":2370202.65,"length":24.37,"diameter":125,"flow_tph":31.89,"depth_end":null,"variant_id":"v2","depth_start":null,"end_node_id":"8715","laying_method":"base","start_node_id":"8665","object_type":"heat_network","id":"v_31967"}},{"type":"Feature","geometry":{"type":"LineString","coordinates":[[37.635333306,55.698475132],[37.635980075,55.697449098]]},"properties":{"cost":1.17916755E7,"length":121.22,"diameter":125,"flow_tph":33.14,"depth_end":null,"variant_id":"v2","depth_start":null,"end_node_id":"8657","laying_method":"base","start_node_id":"8584","object_type":"heat_network","id":"v_29218"}},{"type":"Feature","geometry":{"type":"LineString","coordinates":[[37.633204499,55.699575075],[37.633461561,55.699510742]]},"properties":{"cost":1389645.66,"length":17.67,"diameter":65,"flow_tph":4.08,"depth_end":null,"variant_id":"v2","depth_start":null,"end_node_id":"8678","laying_method":"base","start_node_id":"7318","object_type":"heat_network","id":"v_28263"}},{"type":"Feature","geometry":{"type":"LineString","coordinates":[[37.639538146,55.696851829],[37.638461839,55.697638533]]},"properties":{"cost":9931064.94,"length":110.66,"diameter":100,"flow_tph":20.63,"depth_end":null,"variant_id":"v2","depth_start":null,"end_node_id":"7271","laying_method":"base","start_node_id":"7267","object_type":"heat_network","id":"v_27559"}},{"type":"Feature","geometry":{"type":"LineString","coordinates":[[37.634289664,55.697393635],[37.635082576,55.698312476]]},"properties":{"cost":1.10667822E7,"length":113.77,"diameter":125,"flow_tph":34.53,"depth_end":null,"variant_id":"v2","depth_start":null,"end_node_id":"8650","laying_method":"base","start_node_id":"8640","object_type":"heat_network","id":"v_31210"}},{"type":"Feature","geometry":{"type":"LineString","coordinates":[[37.634963485,55.699015136],[37.633461561,55.699510742]]},"properties":{"cost":8597592.17,"length":109.34,"diameter":65,"flow_tph":4.08,"depth_end":null,"variant_id":"v2","depth_start":null,"end_node_id":"8678","laying_method":"base","start_node_id":"8613","object_type":"heat_network","id":"v_30573"}},{"type":"Feature","geometry":{"type":"LineString","coordinates":[[37.632012226,55.700048261],[37.632162838,55.700072039]]},"properties":{"cost":882222.84,"length":9.83,"diameter":100,"flow_tph":15.99,"depth_end":null,"variant_id":"v2","depth_start":null,"end_node_id":"8638","laying_method":"base","start_node_id":"7314","object_type":"heat_network","id":"v_28399"}},{"type":"Feature","geometry":{"type":"LineString","coordinates":[[37.638280304,55.697956786],[37.638461839,55.697638533]]},"properties":{"cost":3620089.13,"length":37.22,"diameter":125,"flow_tph":27.82,"depth_end":null,"variant_id":"v2","depth_start":null,"end_node_id":"7271","laying_method":"base","start_node_id":"7266","object_type":"heat_network","id":"v_27696"}},{"type":"Feature","geometry":{"type":"LineString","coordinates":[[37.635082576,55.698312476],[37.633656811,55.697686393]]},"properties":{"cost":1.01886417E7,"length":113.53,"diameter":100,"flow_tph":19.73,"depth_end":null,"variant_id":"v2","depth_start":null,"end_node_id":"8682","laying_method":"base","start_node_id":"8650","object_type":"heat_network","id":"v_31601"}},{"type":"Feature","geometry":{"type":"LineString","coordinates":[[37.632034439,55.69704569],[37.632446869,55.697439356]]},"properties":{"cost":4952367.53,"length":50.91,"diameter":125,"flow_tph":31.89,"depth_end":null,"variant_id":"v2","depth_start":null,"end_node_id":"8715","laying_method":"base","start_node_id":"7321","object_type":"heat_network","id":"v_28340"}},{"type":"Feature","geometry":{"type":"LineString","coordinates":[[37.632745397,55.70010957],[37.634268624,55.699336188]]},"properties":{"cost":1.252415625E7,"length":128.75,"diameter":125,"flow_tph":29.42,"depth_end":null,"variant_id":"v2","depth_start":null,"end_node_id":"8609","laying_method":"base","start_node_id":"8599","object_type":"heat_network","id":"v_29876"}},{"type":"Feature","geometry":{"type":"LineString","coordinates":[[37.635082576,55.698312476],[37.634205497,55.697892803]]},"properties":{"cost":6485100.73,"length":72.26,"diameter":100,"flow_tph":19.77,"depth_end":null,"variant_id":"v2","depth_start":null,"end_node_id":"8685","laying_method":"base","start_node_id":"8650","object_type":"heat_network","id":"v_31604"}},{"type":"Feature","geometry":{"type":"LineString","coordinates":[[37.632202634,55.700314417],[37.632321558,55.700263158]]},"properties":{"cost":843900.44,"length":9.4,"diameter":100,"flow_tph":18.03,"depth_end":null,"variant_id":"v2","depth_start":null,"end_node_id":"8629","laying_method":"base","start_node_id":"7315","object_type":"heat_network","id":"v_28406"}},{"type":"Feature","geometry":{"type":"LineString","coordinates":[[37.635333306,55.698475132],[37.633870304,55.698110419]]},"properties":{"cost":9778374.82,"length":100.52,"diameter":125,"flow_tph":31.89,"depth_end":null,"variant_id":"v2","depth_start":null,"end_node_id":"8684","laying_method":"base","start_node_id":"8584","object_type":"heat_network","id":"v_29238"}},{"type":"Feature","geometry":{"type":"LineString","coordinates":[[37.634582926,55.699854464],[37.634651523,55.699696985]]},"properties":{"cost":1619951.4,"length":18.05,"diameter":100,"flow_tph":18.76,"depth_end":null,"variant_id":"v2","depth_start":null,"end_node_id":"8616","laying_method":"base","start_node_id":"7310","object_type":"heat_network","id":"v_28345"}},{"type":"Feature","geometry":{"type":"LineString","coordinates":[[37.634446268,55.697252392],[37.634289664,55.697393635]]},"properties":{"cost":1804353.98,"length":18.55,"diameter":125,"flow_tph":34.53,"depth_end":null,"variant_id":"v2","depth_start":null,"end_node_id":"8640","laying_method":"base","start_node_id":"7316","object_type":"heat_network","id":"v_28409"}},{"type":"Feature","geometry":{"type":"LineString","coordinates":[[37.635333306,55.698475132],[37.633243533,55.6986993]]},"properties":{"cost":1.300634843E7,"length":133.71,"diameter":125,"flow_tph":40.0,"depth_end":null,"variant_id":"v2","depth_start":null,"end_node_id":"8718","laying_method":"base","start_node_id":"8584","object_type":"heat_network","id":"v_29244"}},{"type":"Feature","geometry":null,"properties":{"rank":1,"score":15.8077,"variant_id":"v2","calculated_cost":2.8087504715E8,"construction_cost":2.8087504715E8,"new_network_length":2647.74,"unconnected_oks_ids":[],"unconnected_penalty":0.0,"chamber_construction_cost":0.0,"existing_chamber_tie_in_cost":15000000,"existing_chamber_tie_in_count":3,"object_type":"variant_summary","id":"summary_v2"}}]}